0 SL-12 R/B(2)
1 15702U 85037F   13282.92746521  .00000029  00000-0  00000+0 0  7998
2 15702 064.1848 231.4448 0029652 005.2902 234.6249 02.13321371221228
0 SL-12 R/B(2)
1 15702U 85037F   13285.70344456 -.00000004  00000-0  00000+0 0  8005
2 15702 064.1841 231.3486 0029658 005.3572 206.3883 02.13321464221281
0 SL-12 R/B(2)
1 15702U 85037F   13288.13022492 -.00000035  00000-0  00000+0 0  8013
2 15702 064.1835 231.2646 0029671 005.3668 270.0406 02.13321523221333
0 SL-12 R/B(2)
1 15702U 85037F   13290.32367575 -.00000038  00000-0  00000+0 0  8025
2 15702 064.1831 231.1885 0029717 005.4593 154.4245 02.13321535221386
0 SL-12 R/B(2)
1 15702U 85037F   13292.73504209 -.00000018  00000-0  00000+0 0  8038
2 15702 064.1826 231.1051 0029764 005.5139 206.1971 02.13321507221430
0 SL-12 R/B(2)
1 15702U 85037F   13295.17109880 -.00000001  00000-0  00000+0 0  8048
2 15702 064.1819 231.0208 0029803 005.5413 276.9584 02.13321453221484
